{
  "type": "FeatureCollection",
  "features": [
    {
      "type": "Feature",
      "properties": {
        "norad_id": 37836,
        "name": "EUTELSAT 16A",
        "group": "eutelsat",
        "lat": -0.05890115626561868,
        "lon": -134.7042270795085,
        "alt_km": 35770.45060917077,
        "timestamp": "2025-12-25T07:41:09.394171+00:00",
        "meta_object_name": "EUTELSAT 16A",
        "meta_object_id": "2011-057A",
        "meta_epoch": "2025-12-24T21:44:06.451008",
        "meta_mean_motion": 1.0027108,
        "meta_eccentricity": 0.00058423,
        "meta_inclination": 0.0561,
        "meta_ra_of_asc_node": 348.6529,
        "meta_arg_of_pericenter": 286.9803,
        "meta_mean_anomaly": 160.0511,
        "meta_ephemeris_type": 0,
        "meta_classification_type": "U",
        "meta_norad_cat_id": 37836,
        "meta_element_set_no": 999,
        "meta_rev_at_epoch": 558,
        "meta_bstar": 0,
        "meta_mean_motion_dot": 1.25e-06,
        "meta_mean_motion_ddot": 0,
        "tle_line1": "1 37836U 11057A   25358.90563022  .00000125  00000+0  00000+0 0  9997",
        "tle_line2": "2 37836   0.0561 348.6529 0005842 286.9803 160.0511  1.00271080  5584"
      },
      "geometry": {
        "type": "Point",
        "coordinates": [
          -134.7042270795085,
          -0.05890115626561868
        ]
      }
    },
    {
      "type": "Feature",
      "properties": {
        "norad_id": 38992,
        "name": "EUTELSAT 21B",
        "group": "eutelsat",
        "lat": -0.0712174208380169,
        "lon": -129.08690543260812,
        "alt_km": 35777.13569389181,
        "timestamp": "2025-12-25T07:41:09.394182+00:00",
        "meta_object_name": "EUTELSAT 21B",
        "meta_object_id": "2012-062B",
        "meta_epoch": "2025-12-24T21:45:43.795296",
        "meta_mean_motion": 1.00271035,
        "meta_eccentricity": 0.00032453,
        "meta_inclination": 0.0657,
        "meta_ra_of_asc_node": 349.4263,
        "meta_arg_of_pericenter": 289.9488,
        "meta_mean_anomaly": 162.3095,
        "meta_ephemeris_type": 0,
        "meta_classification_type": "U",
        "meta_norad_cat_id": 38992,
        "meta_element_set_no": 999,
        "meta_rev_at_epoch": 4808,
        "meta_bstar": 0,
        "meta_mean_motion_dot": 1.51e-06,
        "meta_mean_motion_ddot": 0,
        "tle_line1": "1 38992U 12062B   25358.90675689  .00000151  00000+0  00000+0 0  9990",
        "tle_line2": "2 38992   0.0657 349.4263 0003245 289.9488 162.3095  1.00271035 48089"
      },
      "geometry": {
        "type": "Point",
        "coordinates": [
          -129.08690543260812,
          -0.0712174208380169
        ]
      }
    },
    {
      "type": "Feature",
      "properties": {
        "norad_id": 39020,
        "name": "EUTELSAT 70B",
        "group": "eutelsat",
        "lat": -0.07664863486198,
        "lon": -80.12161283992536,
        "alt_km": 35769.95425878287,
        "timestamp": "2025-12-25T07:41:09.394194+00:00",
        "meta_object_name": "EUTELSAT 70B",
        "meta_object_id": "2012-069A",
        "meta_epoch": "2025-12-24T20:16:59.793600",
        "meta_mean_motion": 1.00271857,
        "meta_eccentricity": 0.00041936,
        "meta_inclination": 0.062,
        "meta_ra_of_asc_node": 346.7873,
        "meta_arg_of_pericenter": 268.1585,
        "meta_mean_anomaly": 213.4107,
        "meta_ephemeris_type": 0,
        "meta_classification_type": "U",
        "meta_norad_cat_id": 39020,
        "meta_element_set_no": 999,
        "meta_rev_at_epoch": 4776,
        "meta_bstar": 0,
        "meta_mean_motion_dot": -2.2e-07,
        "meta_mean_motion_ddot": 0,
        "tle_line1": "1 39020U 12069A   25358.84513650 -.00000022  00000+0  00000+0 0  9990",
        "tle_line2": "2 39020   0.0620 346.7873 0004193 268.1585 213.4107  1.00271857 47767"
      },
      "geometry": {
        "type": "Point",
        "coordinates": [
          -80.12161283992536,
          -0.07664863486198
        ]
      }
    },
    {
      "type": "Feature",
      "properties": {
        "norad_id": 39122,
        "name": "EUTELSAT 117 WEST A",
        "group": "eutelsat",
        "lat": 0.02887571333012813,
        "lon": 92.57116174642337,
        "alt_km": 35797.85894910856,
        "timestamp": "2025-12-25T07:41:09.394207+00:00",
        "meta_object_name": "EUTELSAT 117 WEST A",
        "meta_object_id": "2013-012A",
        "meta_epoch": "2025-12-24T14:15:19.427904",
        "meta_mean_motion": 1.0027077,
        "meta_eccentricity": 0.00027295,
        "meta_inclination": 0.0203,
        "meta_ra_of_asc_node": 318.1474,
        "meta_arg_of_pericenter": 318.7018,
        "meta_mean_anomaly": 273.5546,
        "meta_ephemeris_type": 0,
        "meta_classification_type": "U",
        "meta_norad_cat_id": 39122,
        "meta_element_set_no": 999,
        "meta_rev_at_epoch": 4668,
        "meta_bstar": 0,
        "meta_mean_motion_dot": 8e-08,
        "meta_mean_motion_ddot": 0,
        "tle_line1": "1 39122U 13012A   25358.59397486  .00000008  00000+0  00000+0 0  9994",
        "tle_line2": "2 39122   0.0203 318.1474 0002729 318.7018 273.5546  1.00270770 46680"
      },
      "geometry": {
        "type": "Point",
        "coordinates": [
          92.57116174642337,
          0.02887571333012813
        ]
      }
    },
    {
      "type": "Feature",
      "properties": {
        "norad_id": 39163,
        "name": "EUTELSAT 7B",
        "group": "eutelsat",
        "lat": -0.039068418066149704,
        "lon": -143.69358044953967,
        "alt_km": 35791.42152242573,
        "timestamp": "2025-12-25T07:41:09.394219+00:00",
        "meta_object_name": "EUTELSAT 7B",
        "meta_object_id": "2013-022A",
        "meta_epoch": "2025-12-24T21:41:36.689568",
        "meta_mean_motion": 1.00271629,
        "meta_eccentricity": 0.00046018,
        "meta_inclination": 0.0658,
        "meta_ra_of_asc_node": 9.0078,
        "meta_arg_of_pericenter": 313.4788,
        "meta_mean_anomaly": 103.5806,
        "meta_ephemeris_type": 0,
        "meta_classification_type": "U",
        "meta_norad_cat_id": 39163,
        "meta_element_set_no": 999,
        "meta_rev_at_epoch": 4620,
        "meta_bstar": 0,
        "meta_mean_motion_dot": 6.9e-07,
        "meta_mean_motion_ddot": 0,
        "tle_line1": "1 39163U 13022A   25358.90389687  .00000069  00000+0  00000+0 0  9996",
        "tle_line2": "2 39163   0.0658   9.0078 0004601 313.4788 103.5806  1.00271629 46205"
      },
      "geometry": {
        "type": "Point",
        "coordinates": [
          -143.69358044953967,
          -0.039068418066149704
        ]
      }
    },
    {
      "type": "Feature",
      "properties": {
        "norad_id": 39612,
        "name": "EXPRESS-AT1",
        "group": "eutelsat",
        "lat": -0.014806758308013966,
        "lon": -94.63435654271818,
        "alt_km": 35789.32542981161,
        "timestamp": "2025-12-25T07:41:09.394232+00:00",
        "meta_object_name": "EXPRESS-AT1",
        "meta_object_id": "2014-010A",
        "meta_epoch": "2025-12-24T21:55:35.351040",
        "meta_mean_motion": 1.00271265,
        "meta_eccentricity": 8.894e-05,
        "meta_inclination": 0.0123,
        "meta_ra_of_asc_node": 292.9239,
        "meta_arg_of_pericenter": 186.2231,
        "meta_mean_anomaly": 359.4276,
        "meta_ephemeris_type": 0,
        "meta_classification_type": "U",
        "meta_norad_cat_id": 39612,
        "meta_element_set_no": 999,
        "meta_rev_at_epoch": 4307,
        "meta_bstar": 0,
        "meta_mean_motion_dot": 1e-06,
        "meta_mean_motion_ddot": 0,
        "tle_line1": "1 39612U 14010A   25358.91360360  .00000100  00000+0  00000+0 0  9997",
        "tle_line2": "2 39612   0.0123 292.9239 0000889 186.2231 359.4276  1.00271265 43077"
      },
      "geometry": {
        "type": "Point",
        "coordinates": [
          -94.63435654271818,
          -0.014806758308013966
        ]
      }
    },
    {
      "type": "Feature",
      "properties": {
        "norad_id": 39613,
        "name": "EXPRESS-AT2",
        "group": "eutelsat",
        "lat": 0.005576252453171171,
        "lon": -10.755934527926115,
        "alt_km": 35784.49715469108,
        "timestamp": "2025-12-25T07:41:09.394244+00:00",
        "meta_object_name": "EXPRESS-AT2",
        "meta_object_id": "2014-010B",
        "meta_epoch": "2025-12-24T22:19:25.569120",
        "meta_mean_motion": 1.00272061,
        "meta_eccentricity": 0.0001582,
        "meta_inclination": 0.0172,
        "meta_ra_of_asc_node": 291.1665,
        "meta_arg_of_pericenter": 341.4259,
        "meta_mean_anomaly": 295.8232,
        "meta_ephemeris_type": 0,
        "meta_classification_type": "U",
        "meta_norad_cat_id": 39613,
        "meta_element_set_no": 999,
        "meta_rev_at_epoch": 4275,
        "meta_bstar": 0,
        "meta_mean_motion_dot": -2.6e-06,
        "meta_mean_motion_ddot": 0,
        "tle_line1": "1 39613U 14010B   25358.93015705 -.00000260  00000+0  00000+0 0  9998",
        "tle_line2": "2 39613   0.0172 291.1665 0001582 341.4259 295.8232  1.00272061 42756"
      },
      "geometry": {
        "type": "Point",
        "coordinates": [
          -10.755934527926115,
          0.005576252453171171
        ]
      }
    }
  ]
}